[{"OBJECT_NAME":"STARLINK-34989","OBJECT_ID":"2025-179S","EPOCH":"2026-03-09T16:50:12.215328","MEAN_MOTION":15.05647599,"ECCENTRICITY":0.00011052,"INCLINATION":97.6025,"RA_OF_ASC_NODE":113.0321,"ARG_OF_PERICENTER":124.2486,"MEAN_ANOMALY":235.8845,"EPHEMERIS_TYPE":0,"CLASSIFICATION_TYPE":"U","NORAD_CAT_ID":65251,"ELEMENT_SET_NO":999,"REV_AT_EPOCH":3199,"BSTAR":4.1197212e-5,"MEAN_MOTION_DOT":5.34e-6,"MEAN_MOTION_DDOT":0},{"OBJECT_NAME":"RAPIDEYE 1","OBJECT_ID":"2008-040C","EPOCH":"2026-03-09T15:08:44.758176","MEAN_MOTION":15.03049091,"ECCENTRICITY":0.0028174,"INCLINATION":97.4223,"RA_OF_ASC_NODE":100.7722,"ARG_OF_PERICENTER":157.1968,"MEAN_ANOMALY":203.0516,"EPHEMERIS_TYPE":0,"CLASSIFICATION_TYPE":"U","NORAD_CAT_ID":33314,"ELEMENT_SET_NO":999,"REV_AT_EPOCH":95070,"BSTAR":0.00023277,"MEAN_MOTION_DOT":3.104e-5,"MEAN_MOTION_DDOT":0}]
